{
    "RECORDS": [
        {
            "bb": null,
            "bb_pos": 0,
            "id": 10185404940749,
            "CCSDS_CDM_VERS": 28357.46,
            "CREATION_DATE": "2068-06-21T03:49:05.381Z",
            "ORIGINATOR": "Crist, Terry and Ondricka",
            "MESSAGE_FOR": "Lehner - Turcotte",
            "MESSAGE_ID": "0xF",
            "TCA": "2054-01-15T19:15:53.103Z",
            "MISS_DISTANCE": 80868.41,
            "RELATIVE_SPEED": 35524.14,
            "RELATIVE_POSITION_R": 28097.57,
            "RELATIVE_POSITION_T": 7362.38,
            "RELATIVE_POSITION_N": 32034.41,
            "RELATIVE_VELOCITY_R": 18261.04,
            "RELATIVE_VELOCITY_T": 33836.97,
            "RELATIVE_VELOCITY_N": 17749.75,
            "START_SCREEN_PERIOD": "0x7",
            "STOP_SCREEN_PERIOD": "0x1",
            "SCREEN_VOLUME_FRAME": "0x5",
            "SCREEN_VOLUME_SHAPE": "0xF",
            "SCREEN_VOLUME_X": 92231.98,
            "SCREEN_VOLUME_Y": 9090.31,
            "SCREEN_VOLUME_Z": 30142.12,
            "SCREEN_ENTRY_TIME": "2097-05-31T13:39:35.435Z",
            "SCREEN_EXIT_TIME": "2045-10-18T10:59:47.931Z",
            "COLLISION_PROBABILITY": 4362.39,
            "COLLISION_PROBABILITY_METHOD": "0x9",
            "OBJECT1": 798501901977889,
            "OBJECT2": 58814449049008
        },
        {
            "bb": null,
            "bb_pos": 0,
            "id": 356503237899618,
            "CCSDS_CDM_VERS": 21864.32,
            "CREATION_DATE": "2028-04-04T15:52:27.236Z",
            "ORIGINATOR": "Gerhold - Mraz",
            "MESSAGE_FOR": "Waelchi Inc",
            "MESSAGE_ID": "0x6",
            "TCA": "2045-03-23T04:27:19.755Z",
            "MISS_DISTANCE": 53830.62,
            "RELATIVE_SPEED": 36079.04,
            "RELATIVE_POSITION_R": 64061.59,
            "RELATIVE_POSITION_T": 37361.48,
            "RELATIVE_POSITION_N": 22624.94,
            "RELATIVE_VELOCITY_R": 53800.9,
            "RELATIVE_VELOCITY_T": 76008.97,
            "RELATIVE_VELOCITY_N": 6985.02,
            "START_SCREEN_PERIOD": "0x0",
            "STOP_SCREEN_PERIOD": "0x6",
            "SCREEN_VOLUME_FRAME": "0x3",
            "SCREEN_VOLUME_SHAPE": "0x9",
            "SCREEN_VOLUME_X": 25858.87,
            "SCREEN_VOLUME_Y": 90420.11,
            "SCREEN_VOLUME_Z": 24573.34,
            "SCREEN_ENTRY_TIME": "2080-06-20T02:36:06.700Z",
            "SCREEN_EXIT_TIME": "2049-01-15T06:11:52.458Z",
            "COLLISION_PROBABILITY": 7051.2,
            "COLLISION_PROBABILITY_METHOD": "0x9",
            "OBJECT1": 108523010931249,
            "OBJECT2": 574997401476910
        },
        {
            "bb": null,
            "bb_pos": 0,
            "id": 359888845202701,
            "CCSDS_CDM_VERS": 56285.9,
            "CREATION_DATE": "2061-09-11T22:19:18.716Z",
            "ORIGINATOR": "Jenkins Inc",
            "MESSAGE_FOR": "Ernser Inc",
            "MESSAGE_ID": "0xd",
            "TCA": "2049-11-22T08:16:29.297Z",
            "MISS_DISTANCE": 61732.58,
            "RELATIVE_SPEED": 1851.94,
            "RELATIVE_POSITION_R": 11096.34,
            "RELATIVE_POSITION_T": 78200.29,
            "RELATIVE_POSITION_N": 69108.08,
            "RELATIVE_VELOCITY_R": 75081.76,
            "RELATIVE_VELOCITY_T": 75845.62,
            "RELATIVE_VELOCITY_N": 29629.24,
            "START_SCREEN_PERIOD": "0xe",
            "STOP_SCREEN_PERIOD": "0xb",
            "SCREEN_VOLUME_FRAME": "0xF",
            "SCREEN_VOLUME_SHAPE": "0xE",
            "SCREEN_VOLUME_X": 49903.9,
            "SCREEN_VOLUME_Y": 1348.43,
            "SCREEN_VOLUME_Z": 97440.42,
            "SCREEN_ENTRY_TIME": "2078-07-31T17:30:11.663Z",
            "SCREEN_EXIT_TIME": "2085-04-16T07:17:54.689Z",
            "COLLISION_PROBABILITY": 64060.81,
            "COLLISION_PROBABILITY_METHOD": "0xF",
            "OBJECT1": 57163651858709,
            "OBJECT2": 941900136961883
        },
        {
            "bb": null,
            "bb_pos": 0,
            "id": 397613995813511,
            "CCSDS_CDM_VERS": 83644.31,
            "CREATION_DATE": "2075-11-15T19:04:23.764Z",
            "ORIGINATOR": "Gutkowski - Treutel",
            "MESSAGE_FOR": "Deckow Group",
            "MESSAGE_ID": "0xE",
            "TCA": "2040-12-16T09:53:25.752Z",
            "MISS_DISTANCE": 4935.57,
            "RELATIVE_SPEED": 77737.12,
            "RELATIVE_POSITION_R": 99549.39,
            "RELATIVE_POSITION_T": 5588.83,
            "RELATIVE_POSITION_N": 15755.06,
            "RELATIVE_VELOCITY_R": 6450.29,
            "RELATIVE_VELOCITY_T": 57621.81,
            "RELATIVE_VELOCITY_N": 8937.91,
            "START_SCREEN_PERIOD": "0x5",
            "STOP_SCREEN_PERIOD": "0xE",
            "SCREEN_VOLUME_FRAME": "0xE",
            "SCREEN_VOLUME_SHAPE": "0xb",
            "SCREEN_VOLUME_X": 8594.73,
            "SCREEN_VOLUME_Y": 78020.62,
            "SCREEN_VOLUME_Z": 3879.43,
            "SCREEN_ENTRY_TIME": "1994-08-08T09:56:07.664Z",
            "SCREEN_EXIT_TIME": "2012-03-21T15:44:22.656Z",
            "COLLISION_PROBABILITY": 74487.97,
            "COLLISION_PROBABILITY_METHOD": "0x6",
            "OBJECT1": 771598209822198,
            "OBJECT2": 455165770701534
        },
        {
            "bb": null,
            "bb_pos": 0,
            "id": 439245502315579,
            "CCSDS_CDM_VERS": 97252.44,
            "CREATION_DATE": "2026-05-01T21:38:23.998Z",
            "ORIGINATOR": "Lueilwitz Group",
            "MESSAGE_FOR": "Wehner Inc",
            "MESSAGE_ID": "0xb",
            "TCA": "2043-06-15T01:13:47.774Z",
            "MISS_DISTANCE": 3836.45,
            "RELATIVE_SPEED": 77389.86,
            "RELATIVE_POSITION_R": 58145.75,
            "RELATIVE_POSITION_T": 66409.66,
            "RELATIVE_POSITION_N": 4329.53,
            "RELATIVE_VELOCITY_R": 16286.97,
            "RELATIVE_VELOCITY_T": 75459.76,
            "RELATIVE_VELOCITY_N": 30944,
            "START_SCREEN_PERIOD": "0xf",
            "STOP_SCREEN_PERIOD": "0xe",
            "SCREEN_VOLUME_FRAME": "0x8",
            "SCREEN_VOLUME_SHAPE": "0xF",
            "SCREEN_VOLUME_X": 74977.86,
            "SCREEN_VOLUME_Y": 27895.63,
            "SCREEN_VOLUME_Z": 9304.01,
            "SCREEN_ENTRY_TIME": "2038-09-28T12:58:11.598Z",
            "SCREEN_EXIT_TIME": "2018-04-20T09:05:12.835Z",
            "COLLISION_PROBABILITY": 33225.66,
            "COLLISION_PROBABILITY_METHOD": "0xa",
            "OBJECT1": 165681341923961,
            "OBJECT2": 641893031250928
        },
        {
            "bb": null,
            "bb_pos": 0,
            "id": 524630970672183,
            "CCSDS_CDM_VERS": 13529.24,
            "CREATION_DATE": "2084-01-13T21:38:21.150Z",
            "ORIGINATOR": "Trantow Group",
            "MESSAGE_FOR": "Lueilwitz - Labadie",
            "MESSAGE_ID": "0xC",
            "TCA": "1996-12-19T14:19:35.593Z",
            "MISS_DISTANCE": 23953.37,
            "RELATIVE_SPEED": 23079.16,
            "RELATIVE_POSITION_R": 86176.89,
            "RELATIVE_POSITION_T": 75798.81,
            "RELATIVE_POSITION_N": 105.97,
            "RELATIVE_VELOCITY_R": 24981.3,
            "RELATIVE_VELOCITY_T": 18945.83,
            "RELATIVE_VELOCITY_N": 84887.2,
            "START_SCREEN_PERIOD": "0xf",
            "STOP_SCREEN_PERIOD": "0xa",
            "SCREEN_VOLUME_FRAME": "0xd",
            "SCREEN_VOLUME_SHAPE": "0xE",
            "SCREEN_VOLUME_X": 72929.76,
            "SCREEN_VOLUME_Y": 64734.56,
            "SCREEN_VOLUME_Z": 15838.83,
            "SCREEN_ENTRY_TIME": "2031-06-10T06:09:46.487Z",
            "SCREEN_EXIT_TIME": "1990-10-10T22:54:48.208Z",
            "COLLISION_PROBABILITY": 67480.69,
            "COLLISION_PROBABILITY_METHOD": "0xd",
            "OBJECT1": 999193523167738,
            "OBJECT2": 528771834386827
        },
        {
            "bb": null,
            "bb_pos": 0,
            "id": 548688096428715,
            "CCSDS_CDM_VERS": 62725.56,
            "CREATION_DATE": "2037-03-14T23:51:26.018Z",
            "ORIGINATOR": "Nitzsche - Ziemann",
            "MESSAGE_FOR": "Kovacek, Gulgowski and Padberg",
            "MESSAGE_ID": "0xc",
            "TCA": "2052-07-27T09:35:44.359Z",
            "MISS_DISTANCE": 99559.13,
            "RELATIVE_SPEED": 5058.87,
            "RELATIVE_POSITION_R": 90009.33,
            "RELATIVE_POSITION_T": 61407.73,
            "RELATIVE_POSITION_N": 41954.56,
            "RELATIVE_VELOCITY_R": 84961.81,
            "RELATIVE_VELOCITY_T": 66426.61,
            "RELATIVE_VELOCITY_N": 3908.44,
            "START_SCREEN_PERIOD": "0xB",
            "STOP_SCREEN_PERIOD": "0xf",
            "SCREEN_VOLUME_FRAME": "0xa",
            "SCREEN_VOLUME_SHAPE": "0x1",
            "SCREEN_VOLUME_X": 67997.71,
            "SCREEN_VOLUME_Y": 13527.11,
            "SCREEN_VOLUME_Z": 14553.56,
            "SCREEN_ENTRY_TIME": "2071-04-20T19:34:06.602Z",
            "SCREEN_EXIT_TIME": "2035-11-29T00:31:50.172Z",
            "COLLISION_PROBABILITY": 79261.95,
            "COLLISION_PROBABILITY_METHOD": "0xe",
            "OBJECT1": 589525003916642,
            "OBJECT2": 514653885372065
        },
        {
            "bb": null,
            "bb_pos": 0,
            "id": 697560704606991,
            "CCSDS_CDM_VERS": 8778.71,
            "CREATION_DATE": "2035-01-31T09:51:19.519Z",
            "ORIGINATOR": "Mitchell - Ondricka",
            "MESSAGE_FOR": "Swaniawski - Walter",
            "MESSAGE_ID": "0xd",
            "TCA": "2036-05-29T17:50:58.655Z",
            "MISS_DISTANCE": 37330.05,
            "RELATIVE_SPEED": 36491.02,
            "RELATIVE_POSITION_R": 42127.39,
            "RELATIVE_POSITION_T": 15208.97,
            "RELATIVE_POSITION_N": 4608.82,
            "RELATIVE_VELOCITY_R": 30433.31,
            "RELATIVE_VELOCITY_T": 5648.59,
            "RELATIVE_VELOCITY_N": 87659.82,
            "START_SCREEN_PERIOD": "0xA",
            "STOP_SCREEN_PERIOD": "0xc",
            "SCREEN_VOLUME_FRAME": "0xE",
            "SCREEN_VOLUME_SHAPE": "0xd",
            "SCREEN_VOLUME_X": 15073.46,
            "SCREEN_VOLUME_Y": 58873.53,
            "SCREEN_VOLUME_Z": 38394.43,
            "SCREEN_ENTRY_TIME": "2034-01-11T06:48:21.228Z",
            "SCREEN_EXIT_TIME": "2021-07-26T22:11:09.606Z",
            "COLLISION_PROBABILITY": 48576.68,
            "COLLISION_PROBABILITY_METHOD": "0x2",
            "OBJECT1": 903735740224150,
            "OBJECT2": 883283036300182
        },
        {
            "bb": null,
            "bb_pos": 0,
            "id": 881660319201469,
            "CCSDS_CDM_VERS": 94147.04,
            "CREATION_DATE": "2067-02-10T09:53:39.932Z",
            "ORIGINATOR": "Lang LLC",
            "MESSAGE_FOR": "Kerluke - Larson",
            "MESSAGE_ID": "0xF",
            "TCA": "2002-11-07T19:32:02.133Z",
            "MISS_DISTANCE": 73150.54,
            "RELATIVE_SPEED": 5019.12,
            "RELATIVE_POSITION_R": 71176.42,
            "RELATIVE_POSITION_T": 51517.25,
            "RELATIVE_POSITION_N": 11590.01,
            "RELATIVE_VELOCITY_R": 61497.44,
            "RELATIVE_VELOCITY_T": 55623.63,
            "RELATIVE_VELOCITY_N": 99008.23,
            "START_SCREEN_PERIOD": "0x6",
            "STOP_SCREEN_PERIOD": "0x7",
            "SCREEN_VOLUME_FRAME": "0xd",
            "SCREEN_VOLUME_SHAPE": "0x3",
            "SCREEN_VOLUME_X": 64569.42,
            "SCREEN_VOLUME_Y": 62950.77,
            "SCREEN_VOLUME_Z": 78540.33,
            "SCREEN_ENTRY_TIME": "2035-01-28T07:21:30.002Z",
            "SCREEN_EXIT_TIME": "2077-06-21T03:41:24.638Z",
            "COLLISION_PROBABILITY": 96850.46,
            "COLLISION_PROBABILITY_METHOD": "0xb",
            "OBJECT1": 709222562616247,
            "OBJECT2": 586236110348301
        },
        {
            "bb": null,
            "bb_pos": 0,
            "id": 905521968515254,
            "CCSDS_CDM_VERS": 31000.06,
            "CREATION_DATE": "2022-04-19T16:44:53.086Z",
            "ORIGINATOR": "Schumm Group",
            "MESSAGE_FOR": "Carroll - Pagac",
            "MESSAGE_ID": "0xA",
            "TCA": "2012-12-17T03:53:47.864Z",
            "MISS_DISTANCE": 11613.19,
            "RELATIVE_SPEED": 96578.1,
            "RELATIVE_POSITION_R": 98755.98,
            "RELATIVE_POSITION_T": 58842.94,
            "RELATIVE_POSITION_N": 36374.3,
            "RELATIVE_VELOCITY_R": 46513.09,
            "RELATIVE_VELOCITY_T": 94363.51,
            "RELATIVE_VELOCITY_N": 37382.99,
            "START_SCREEN_PERIOD": "0x7",
            "STOP_SCREEN_PERIOD": "0xA",
            "SCREEN_VOLUME_FRAME": "0xe",
            "SCREEN_VOLUME_SHAPE": "0xe",
            "SCREEN_VOLUME_X": 68630.95,
            "SCREEN_VOLUME_Y": 93883.81,
            "SCREEN_VOLUME_Z": 12079.12,
            "SCREEN_ENTRY_TIME": "2074-07-26T01:02:41.883Z",
            "SCREEN_EXIT_TIME": "2081-12-01T01:06:30.708Z",
            "COLLISION_PROBABILITY": 79908.07,
            "COLLISION_PROBABILITY_METHOD": "0xD",
            "OBJECT1": 643737863738241,
            "OBJECT2": 81085747070568
        }
    ]
}